COSMOS 2425 (716)       
1 29670U 06062A   17313.30442449  .00000010  00000-0  10000-3 0  9998
2 29670  65.3902 299.9659 0021277 337.7801 245.9577  2.13105050 84624
COSMOS 2426 (717)       
1 29671U 06062B   17313.03299848  .00000009  00000-0  10000-3 0  9990
2 29671  65.4082 300.0684 0017918 174.4311  58.3577  2.13103108 84624
COSMOS 2433 (720)       
1 32275U 07052A   17313.08736190 -.00000023  00000-0  10000-3 0  9992
2 32275  65.5833  60.7566 0002321 222.5416  26.5488  2.13104862 78130
COSMOS 2432 (719)       
1 32276U 07052B   17313.29774642 -.00000024  00000-0  10000-3 0  9991
2 32276  65.5955  60.8230 0009545 336.4420  26.5805  2.13103998 78143
COSMOS 2434 (721)       
1 32393U 07065A   17313.23112794  .00000009  00000-0  00000+0 0  9990
2 32393  65.0059 299.0481 0002468 157.4669  90.8123  2.13102996 76849
COSMOS 2436 (723)       
1 32395U 07065C   17313.44231552  .00000009  00000-0  10000-3 0  9994
2 32395  65.0156 299.0899 0014325 349.0305 110.6799  2.13104377 76781
COSMOS 2456 (730)       
1 36111U 09070A   17313.10137063  .00000035  00000-0  00000+0 0  9991
2 36111  64.1788 178.6235 0003618 332.4980 347.8417  2.13103015 61509
COSMOS 2457 (733)       
1 36112U 09070B   17312.65381264  .00000039  00000-0  00000-0 0  9990
2 36112  64.1609 178.5547 0006449 156.4609 308.4423  2.13101797 61509
COSMOS 2458 (734)       
1 36113U 09070C   17313.30427199  .00000034  00000-0  10000-3 0  9991
2 36113  64.1661 178.5419 0002296  41.3265 250.6789  2.13101976 61515
COSMOS 2459 (731)       
1 36400U 10007A   17313.44416969 -.00000027  00000-0  10000-3 0  9993
2 36400  65.4915  59.8324 0025581 353.8793  29.7741  2.13102222 59879
COSMOS 2461 (735)       
1 36401U 10007B   17313.27959741 -.00000026  00000-0  10000-3 0  9994
2 36401  65.4841  59.8145 0007131  80.8385  87.1752  2.13102184 59860
COSMOS 2460 (732)       
1 36402U 10007C   17313.45084792 -.00000027  00000-0  10000-3 0  9991
2 36402  65.4755  59.7802 0001541 136.7207 203.6836  2.13101821 59862
COSMOS 2464 (736)       
1 37139U 10041C   17312.63163932  .00000007  00000-0  00000+0 0  9992
2 37139  64.6112 298.9847 0022089   5.6093  10.5055  2.13102783 55920
COSMOS 2471 (701K)      
1 37372U 11009A   17313.00934755 -.00000024  00000-0  00000+0 0  9997
2 37372  65.4732  59.7416 0008310 224.5100 276.4197  2.13107748 52139
COSMOS 2474 (742)       
1 37829U 11055A   17312.78750962  .00000037  00000-0  00000+0 0  9998
2 37829  64.5033 179.2586 0007186 245.1569  53.5298  2.13101975 47499
COSMOS 2476 (744)       
1 37867U 11064A   17313.29275478  .00000034  00000-0  00000+0 0  9998
2 37867  64.4841 179.3099 0016712 240.9462 131.3210  2.13102009 46865
COSMOS 2477 (745)       
1 37868U 11064B   17312.71968961  .00000038  00000-0  00000-0 0  9996
2 37868  64.4907 179.3754 0014579 242.1559 229.5339  2.13101933 46808
COSMOS 2475 (743)       
1 37869U 11064C   17313.03267381  .00000035  00000-0  00000+0 0  9997
2 37869  64.4992 179.3572 0018996 270.2651  38.0823  2.13102249 46816
COSMOS 2485 (747)       
1 39155U 13019A   17313.08680050  .00000035  00000-0  00000+0 0  9996
2 39155  64.6527 179.3778 0017164 235.3696  23.8805  2.13102063 35327
COSMOS 2492 (754)       
1 39620U 14012A   17313.18620816 -.00000026  00000-0  10000-3 0  9998
2 39620  65.3663  59.7047 0012947 330.8438  39.0958  2.13103491 28283
COSMOS 2500 (755)       
1 40001U 14032A   17312.52097836 -.00000022  00000-0  00000+0 0  9993
2 40001  65.3057  59.7133 0006976 194.8635 247.4807  2.13102818 26483
COSMOS 2501 (702K)      
1 40315U 14075A   17313.14376388  .00000006  00000-0  00000+0 0  9990
2 40315  64.3366 300.2578 0016812 213.2291 151.1228  2.13098647 22909
COSMOS 2514 (751)       
1 41330U 16008A   17313.27812403 -.00000026  00000-0  00000+0 0  9996
2 41330  65.1069  59.7961 0009954 207.3482 276.2107  2.13103426 13663
COSMOS 2516 (753)       
1 41554U 16032A   17312.63078856  .00000006  00000-0  00000+0 0  9993
2 41554  64.5569 300.0794 0014453 226.2848  12.5495  2.13101752 11255
COSMOS 2522 (752)       
1 42939U 17055A   17312.64955157  .00000007  00000-0  00000-0 0  9998
2 42939  64.7869 299.9812 0010249 250.5002 229.0879  2.13101940  1019
